COMMENT,ORIGINATOR,NORAD_CAT_ID,OBJECT_NAME,OBJECT_TYPE,CLASSIFICATION_TYPE,INTLDES,EPOCH,EPOCH_MICROSECONDS,MEAN_MOTION,ECCENTRICITY,INCLINATION,RA_OF_ASC_NODE,ARG_OF_PERICENTER,MEAN_ANOMALY,EPHEMERIS_TYPE,ELEMENT_SET_NO,REV_AT_EPOCH,BSTAR,MEAN_MOTION_DOT,MEAN_MOTION_DDOT,FILE,TLE_LINE0,TLE_LINE1,TLE_LINE2,OBJECT_ID,OBJECT_NUMBER,SEMIMAJOR_AXIS,PERIOD,APOGEE,PERIGEE,DECAYED
GENERATED VIA SPACETRACK.ORG API,18 SPCS,58292,UMBRA-08,PAYLOAD,U,23174AN,2025-12-17 21:14:18,17664,15.999093823,0.0011107352,97.375905,71.680538,296.62032,63.393654,0,999,11759,0.0033315739,0.016498772,0.001625517,4926279,0 UMBRA-08,1 58292U 23174AN  25351.88493076  .01649877  16255-2  33316-2 0  9995,2 58292  97.3759  71.6805 0011107 296.6203  63.3937 15.99909382117592,2023-174AN,58292,6652.807,90.005,282.061,267.282,1
GENERATED VIA SPACETRACK.ORG API,18 SPCS,58292,UMBRA-08,PAYLOAD,U,23174AN,2025-12-18 00:14:24,82080,16.003928446,0.0011084293,97.375497,71.818207,296.01792,63.995728,0,999,11761,0.0033526009,0.017023773,0.0017787795,4926320,0 UMBRA-08,1 58292U 23174AN  25352.01000095  .01702377  17788-2  33526-2 0  9996,2 58292  97.3755  71.8182 0011084 296.0179  63.9957 16.00392845117612,2023-174AN,58292,6651.467,89.978,280.705,265.959,1
GENERATED VIA SPACETRACK.ORG API,18 SPCS,58292,UMBRA-08,PAYLOAD,U,23174AN,2025-12-18 21:13:32,643840,16.04073842,0.0010916,97.3741,72.7842,294.5733,65.441,0,999,11775,0.0035778,0.02178973,0.0038447,4926443,0 UMBRA-08,1 58292U 23174AN  25352.88440560  .02178973  38447-2  35778-2 0  9992,2 58292  97.3741  72.7842 0010916 294.5733  65.4410 16.04073842117755,2023-174AN,58292,6641.287,89.771,270.402,255.903,1
GENERATED VIA SPACETRACK.ORG API,18 SPCS,58292,UMBRA-08,PAYLOAD,U,23174AN,2025-12-18 21:13:32,643840,16.040738425,0.0010916012,97.37412,72.784222,294.57328,65.440952,0,999,11775,0.0035778168,0.021789734,0.0038447044,4926467,0 UMBRA-08,1 58292U 23174AN  25352.88440560  .02178973  38447-2  35778-2 0  9992,2 58292  97.3741  72.7842 0010916 294.5733  65.4410 16.04073843117756,2023-174AN,58292,6641.287,89.771,270.402,255.903,1
GENERATED VIA SPACETRACK.ORG API,18 SPCS,58292,UMBRA-08,PAYLOAD,U,23174AN,2025-12-19 18:09:32,37984,16.08435614,0.0010678,97.3726,73.7527,290.8517,69.1622,0,999,11789,0.0032299,0.0245407,0.0066099,4926557,0 UMBRA-08,1 58292U 23174AN  25353.75662081  .02454070  66099-2  32299-2 0  9997,2 58292  97.3726  73.7527 0010678 290.8517  69.1622 16.08435614117897,2023-174AN,58292,6629.275,89.528,258.219,244.062,1
GENERATED VIA SPACETRACK.ORG API,18 SPCS,58292,UMBRA-08,PAYLOAD,U,23174AN,2025-12-19 21:08:40,308576,16.09104934,0.0010708,97.372,73.8923,288.5405,71.4714,0,999,11791,0.0031256,0.02464439,0.0069099,4927598,0 UMBRA-08,1 58292U 23174AN  25353.88102209  .02464439  69099-2  31256-2 0  9997,2 58292  97.3720  73.8923 0010708 288.5405  71.4714 16.09104934117916,2023-174AN,58292,6627.437,89.491,256.398,242.205,1
GENERATED VIA SPACETRACK.ORG API,18 SPCS,58292,UMBRA-08,PAYLOAD,U,23174AN,2025-12-19 21:08:40,308576,16.091049343,0.0010708189,97.372013,73.892263,288.5405,71.471428,0,999,11791,0.0031256026,0.024644391,0.0069099219,4927604,0 UMBRA-08,1 58292U 23174AN  25353.88102209  .02464439  69099-2  31256-2 0  9997,2 58292  97.3720  73.8923 0010708 288.5405  71.4714 16.09104934117916,2023-174AN,58292,6627.437,89.491,256.399,242.205,1
GENERATED VIA SPACETRACK.ORG API,18 SPCS,58292,UMBRA-08,PAYLOAD,U,23174AN,2025-12-20 04:36:08,639424,16.1109167,0.0010586,97.3712,74.2382,282.5962,77.4138,0,999,11796,0.003201,0.02671387,0.011147,4927610,0 UMBRA-08,1 58292U 23174AN  25354.19176666  .02671387  11147-1  32010-2 0  9991,2 58292  97.3712  74.2382 0010586 282.5962  77.4138 16.11091670117963,2023-174AN,58292,6621.987,89.380,250.862,236.842,1
GENERATED VIA SPACETRACK.ORG API,18 SPCS,58292,UMBRA-08,PAYLOAD,U,23174AN,2025-12-20 04:36:08,612640,16.11100256,0.0010611,97.3712,74.2383,282.494,77.5156,0,999,11796,0.0032232,0.0268086,0.01139,4927609,0 UMBRA-08,1 58292U 23174AN  25354.19176635  .02680860  11390-1  32232-2 0  9999,2 58292  97.3712  74.2383 0010611 282.4940  77.5156 16.11100256117960,2023-174AN,58292,6621.964,89.380,250.855,236.802,1
GENERATED VIA SPACETRACK.ORG API,18 SPCS,58292,UMBRA-08,PAYLOAD,U,23174AN,2025-12-20 04:36:08,639424,16.110916697,0.0010586215,97.371212,74.238171,282.59623,77.413762,0,999,11796,0.0032009916,0.026713869,0.011146746,4928347,0 UMBRA-08,1 58292U 23174AN  25354.19176666  .02671387  11147-1  32010-2 0  9991,2 58292  97.3712  74.2382 0010586 282.5962  77.4138 16.11091670117963,2023-174AN,58292,6621.987,89.380,250.862,236.842,1
GENERATED VIA SPACETRACK.ORG API,18 SPCS,58292,UMBRA-08,PAYLOAD,U,23174AN,2025-12-20 12:03:04,274784,16.13192531,0.0010663,97.3702,74.5863,282.8824,77.127,0,999,11801,0.0031518,0.02721169,0.017059,4928901,0 UMBRA-08,1 58292U 23174AN  25354.50213281  .02721169  17059-1  31518-2 0  9995,2 58292  97.3702  74.5863 0010663 282.8824  77.1270 16.13192531118016,2023-174AN,58292,6616.237,89.264,245.157,231.047,1
GENERATED VIA SPACETRACK.ORG API,18 SPCS,58292,UMBRA-08,PAYLOAD,U,23174AN,2025-12-20 12:03:04,274784,16.131925312,0.001066273,97.370151,74.586293,282.88239,77.126997,0,999,11801,0.0031518052,0.027211688,0.017058591,4928986,0 UMBRA-08,1 58292U 23174AN  25354.50213281  .02721169  17059-1  31518-2 0  9995,2 58292  97.3702  74.5863 0010663 282.8824  77.1270 16.13192531118016,2023-174AN,58292,6616.237,89.264,245.156,231.047,1
GENERATED VIA SPACETRACK.ORG API,18 SPCS,58292,UMBRA-08,PAYLOAD,U,23174AN,2025-12-21 01:25:52,940064,16.17921558,0.001113,97.3678,75.2133,279.2342,80.7687,0,999,11810,0.0027137,0.0440817,0.0000024021,4929613,0 UMBRA-08,1 58292U 23174AN  25355.05964051  .04408170  24021-5  27137-2 0  9993,2 58292  97.3678  75.2133 0011130 279.2342  80.7687 16.17921558118106,2023-174AN,58292,6603.338,89.003,232.553,217.854,1
GENERATED VIA SPACETRACK.ORG API,18 SPCS,58292,UMBRA-08,PAYLOAD,U,23174AN,2025-12-21 04:23:56,198112,16.19290406,0.0011054,97.3669,75.3527,278.7034,81.3002,0,999,11812,0.0028267,0.05086026,0.0000024086,4929622,0 UMBRA-08,1 58292U 23174AN  25355.18328933  .05086026  24086-5  28267-2 0  9999,2 58292  97.3669  75.3527 0011054 278.7034  81.3002 16.19290406118124,2023-174AN,58292,6599.616,88.928,228.776,214.186,1
GENERATED VIA SPACETRACK.ORG API,18 SPCS,58292,UMBRA-08,PAYLOAD,U,23174AN,2025-12-21 04:23:56,198112,16.192904055,0.0011054404,97.366875,75.352658,278.70337,81.300242,0,999,11812,0.002826749,0.050860259,0.000002408641,4930336,0 UMBRA-08,1 58292U 23174AN  25355.18328933  .05086026  24086-5  28267-2 0  9999,2 58292  97.3669  75.3527 0011054 278.7034  81.3002 16.19290406118124,2023-174AN,58292,6599.616,88.928,228.777,214.186,1
GENERATED VIA SPACETRACK.ORG API,18 SPCS,58292,UMBRA-08,PAYLOAD,U,23174AN,2025-12-21 11:48:23,614272,16.23151818,0.0011683,97.3644,75.7027,282.9275,77.071,0,999,11817,0.0025442,0.0620545,0.0000024269,4931015,0 UMBRA-08,1 58292U 23174AN  25355.49193998  .06205450  24269-5  25442-2 0  9994,2 58292  97.3644  75.7027 0011683 282.9275  77.0710 16.23151818118179,2023-174AN,58292,6589.145,88.716,218.708,203.312,1
GENERATED VIA SPACETRACK.ORG API,18 SPCS,58292,UMBRA-08,PAYLOAD,U,23174AN,2025-12-21 11:48:23,614272,16.231518175,0.001168287,97.36443,75.702674,282.92753,77.071016,0,999,11817,0.0025442325,0.062054501,0.000002426926,4931043,0 UMBRA-08,1 58292U 23174AN  25355.49193998  .06205450  24269-5  25442-2 0  9994,2 58292  97.3644  75.7027 0011683 282.9275  77.0710 16.23151818118179,2023-174AN,58292,6589.145,88.716,218.708,203.312,1
GENERATED VIA SPACETRACK.ORG API,18 SPCS,58292,UMBRA-08,PAYLOAD,U,23174AN,2025-12-21 16:14:28,867200,16.2619783,0.0012065,97.3623,75.9132,279.544,80.4488,0,999,11820,0.0024321,0.07662247,0.0000024432,4931044,0 UMBRA-08,1 58292U 23174AN  25355.67672300  .07662247  24432-5  24321-2 0  9992,2 58292  97.3623  75.9132 0012065 279.5440  80.4488 16.26197830118207,2023-174AN,58292,6580.915,88.550,210.719,194.840,1
GENERATED VIA SPACETRACK.ORG API,18 SPCS,58292,UMBRA-08,PAYLOAD,U,23174AN,2025-12-21 23:36:17,2368,16.35678424,0.0013511,97.3616,76.265,272.8977,87.0774,0,999,11825,0.0018157,0.14271903,0.0000024985,4931738,0 UMBRA-08,1 58292U 23174AN  25355.98353012  .14271903  24985-5  18157-2 0  9998,2 58292  97.3616  76.2650 0013511 272.8977  87.0774 16.35678424118255,2023-174AN,58292,6555.461,88.037,186.183,168.469,1
GENERATED VIA SPACETRACK.ORG API,18 SPCS,58292,UMBRA-08,PAYLOAD,U,23174AN,2025-12-22 02:31:58,459872,16.42567636,0.0013919,97.3604,76.4058,261.444,98.5284,0,999,11827,0.00076772,0.1972599,0.0000025432,4931746,0 UMBRA-08,1 58292U 23174AN  25356.10553773  .19725990  25432-5  76772-3 0  9990,2 58292  97.3604  76.4058 0013919 261.4440  98.5284 16.42567636118272,2023-174AN,58292,6537.118,87.668,168.082,149.884,1
GENERATED VIA SPACETRACK.ORG API,18 SPCS,58292,UMBRA-08,PAYLOAD,U,23174AN,2025-12-22 02:31:58,459872,16.425676363,0.0013919122,97.360434,76.40584,261.44396,98.528402,0,999,11827,0.00076772139,0.1972599,0.000002543249,4932384,0 UMBRA-08,1 58292U 23174AN  25356.10553773  .19725990  25432-5  76772-3 0  9990,2 58292  97.3604  76.4058 0013919 261.4440  98.5284 16.42567636118272,2023-174AN,58292,6537.118,87.668,168.082,149.884,1
